OBJECT_NAME,OBJECT_ID,EPOCH,MEAN_MOTION,ECCENTRICITY,INCLINATION,RA_OF_ASC_NODE,ARG_OF_PERICENTER,MEAN_ANOMALY,EPHEMERIS_TYPE,CLASSIFICATION_TYPE,NORAD_CAT_ID,ELEMENT_SET_NO,REV_AT_EPOCH,BSTAR,MEAN_MOTION_DOT,MEAN_MOTION_DDOT
COSMO-SKYMED 1,2007-023A,2026-06-06T20:12:22.066848,14.97054880,.0001298,97.8860,349.6118,80.4432,279.6936,0,U,31598,999,2824,.20421E-3,.2293E-4,0
COSMOS 2428,2007-029A,2026-06-06T14:16:56.224416,14.12930595,.0007286,70.9377,16.7180,155.3924,204.7546,0,U,31792,999,97665,-.69546E-4,-.177E-5,0
SL-16 R/B,2007-029B,2026-06-06T18:39:32.033376,14.14849090,.000225,70.9758,345.1122,258.3156,112.7238,0,U,31793,999,97797,.16895E-3,.278E-5,0
KORONAS-FOTON,2009-003A,2026-06-06T20:23:05.994816,15.45507424,.0010543,82.4291,183.0418,182.2957,177.8245,0,U,33504,999,95950,.25647E-3,.12365E-3,0
CZ-2C R/B,2011-030B,2026-06-06T10:43:04.964736,14.81445560,.00537251,97.8651,113.0273,62.2187,50.9381,0,U,37731,999,80323,.1912982E-3,.1481E-4,0
H-2A R/B,2012-025E,2026-06-06T15:41:24.673056,14.95658028,.004442,98.4816,131.9317,23.0673,337.2527,0,U,38341,999,76151,.32897E-3,.366E-4,0
SHIJIAN-16 (SJ-16),2013-057A,2026-06-06T20:24:09.801216,14.92591115,.0016977,74.9731,16.2618,254.6931,105.2381,0,U,39358,999,68480,.1681E-3,.1705E-4,0
SL-4 R/B,2014-021B,2026-06-06T13:31:57.153216,15.41723399,.0091597,51.6055,262.8077,67.3204,293.7434,0,U,39679,999,66997,.32507E-3,.15814E-3,0
ALOS-2,2014-029A,2026-06-06T20:36:55.008864,14.79468156,.0001687,97.9213,255.1707,89.4077,270.7328,0,U,39766,999,65005,.22778E-3,.165E-4,0
YAOGAN-29,2015-069A,2026-06-06T20:31:26.413248,14.83078182,.0002993,98.0030,186.4719,70.7792,289.3745,0,U,41038,999,56909,.95833E-4,.726E-5,0
ASTRO-H (HITOMI),2016-012A,2026-06-06T15:49:41.022048,15.10466098,.0009557,30.9975,142.1764,148.3935,211.7279,0,U,41337,999,56569,.15863E-3,.2773E-4,0
HXMT (HUIYAN),2017-034A,2026-06-06T16:12:26.127360,15.18400119,.0030166,43.0131,241.5723,77.6488,282.7735,0,U,42758,999,49606,.28432E-3,.5783E-4,0
SAOCOM 1A,2018-076A,2026-06-06T19:21:58.180032,14.82166758,.0001507,97.8883,344.7062,80.1812,279.9571,0,U,43641,999,41456,.71694E-4,.519E-5,0
H-2A R/B,2018-084L,2026-06-06T19:55:34.063104,15.44753789,.0024357,98.8587,34.4596,75.2215,285.1725,0,U,43682,999,41952,.46776E-3,.22032E-3,0
SAOCOM 1B,2020-059A,2026-06-06T20:06:59.674752,14.82163612,.0001508,97.8888,343.8315,77.1598,282.9783,0,U,46265,999,31195,.64879E-4,.464E-5,0
CSS (TIANHE),2021-035A,2026-06-06T16:10:17.688576,15.60361832,.000915,41.4692,25.9625,355.7318,4.3441,0,U,48274,999,29152,.34211E-3,.28669E-3,0
COSMOS 2550,2021-056A,2026-06-06T20:26:18.132864,15.33732367,.0008692,67.1421,131.1700,266.7057,93.3104,0,U,48865,999,27713,.20459E-3,.6525E-4,0
CZ-2C R/B,2022-058K,2026-06-05T11:12:48.005856,15.61032214,.0033216,50.1841,224.4657,218.6451,141.2145,0,U,52794,999,22381,.44813E-3,.39184E-3,0
CZ-2C R/B,2022-132E,2026-06-06T18:27:54.177120,15.70302046,.0017019,97.2912,164.3376,116.3837,243.9175,0,U,54039,999,20431,.50982E-3,.6268E-3,0
GSLV R/B,2022-138AN,2026-06-06T16:35:43.922976,14.97211532,.0021123,87.3804,136.5095,180.5244,179.5969,0,U,54149,999,19724,.28371E-3,.3323E-4,0
XRISM,2023-137A,2026-06-06T10:23:46.302720,15.12371035,.00078406,31.0024,69.2561,217.1216,142.8881,0,U,57800,999,15123,.30290679E-3,.5488E-4,0
ACS3,2024-077B,2026-06-06T13:57:22.978944,13.93749381,.0047765,97.1687,78.7355,67.7110,292.9110,0,U,59588,999,10656,.40688E-1,.54416E-3,0
CZ-8A R/B,2025-231K,2026-06-06T01:57:51.897024,14.30151850,.0116476,50.0038,86.5627,184.9058,175.0725,0,U,66004,999,3335,.41733907E-4,-.47E-6,0
SZ-21 MODULE,2025-246C,2026-06-06T07:35:07.958112,15.75457395,.00071848,41.4728,14.9847,283.9983,76.0062,0,U,66515,999,3202,.36001641E-3,.56445E-3,0
