COSMO-SKYMED 1          
1 31598U 07023A   26157.84192207  .00002293  00000+0  20421-3 0  9999
2 31598  97.8860 349.6118 0001298  80.4432 279.6936 14.97054880 28243
COSMOS 2428             
1 31792U 07029A   26157.59509519 -.00000177  00000+0 -69546-4 0  9994
2 31792  70.9377  16.7180 0007286 155.3924 204.7546 14.12930595976652
SL-16 R/B               
1 31793U 07029B   26157.77745409  .00000278  00000+0  16895-3 0  9993
2 31793  70.9758 345.1122 0002250 258.3156 112.7238 14.14849090977971
KORONAS-FOTON           
1 33504U 09003A   26157.84937494  .00012365  00000+0  25647-3 0  9999
2 33504  82.4291 183.0418 0010543 182.2957 177.8245 15.45507424959504
CZ-2C R/B               
1 37731U 11030B   26157.44658524  .00001481  00000+0  19130-3 0  9995
2 37731  97.8651 113.0273 0053725  62.2187  50.9381 14.81445560803234
H-2A R/B                
1 38341U 12025E   26157.65375779  .00003660  00000+0  32897-3 0  9995
2 38341  98.4816 131.9317 0044420  23.0673 337.2527 14.95658028761514
SHIJIAN-16 (SJ-16)      
1 39358U 13057A   26157.85011344  .00001705  00000+0  16810-3 0  9992
2 39358  74.9731  16.2618 0016977 254.6931 105.2381 14.92591115684809
SL-4 R/B                
1 39679U 14021B   26157.56385594  .00015814  00000+0  32507-3 0  9996
2 39679  51.6055 262.8077 0091597  67.3204 293.7434 15.41723399669976
ALOS-2                  
1 39766U 14029A   26157.85897001  .00001650  00000+0  22778-3 0  9996
2 39766  97.9213 255.1707 0001687  89.4077 270.7328 14.79468156650054
YAOGAN-29               
1 41038U 15069A   26157.85516682  .00000726  00000+0  95833-4 0  9995
2 41038  98.0030 186.4719 0002993  70.7792 289.3745 14.83078182569098
ASTRO-H (HITOMI)        
1 41337U 16012A   26157.65950257  .00002773  00000+0  15863-3 0  9992
2 41337  30.9975 142.1764 0009557 148.3935 211.7279 15.10466098565697
HXMT (HUIYAN)           
1 42758U 17034A   26157.67530240  .00005783  00000+0  28432-3 0  9993
2 42758  43.0131 241.5723 0030166  77.6488 282.7735 15.18400119496069
SAOCOM 1A               
1 43641U 18076A   26157.80692338  .00000519  00000+0  71694-4 0  9995
2 43641  97.8883 344.7062 0001507  80.1812 279.9571 14.82166758414560
H-2A R/B                
1 43682U 18084L   26157.83025536  .00022032  00000+0  46776-3 0  9998
2 43682  98.8587  34.4596 0024357  75.2215 285.1725 15.44753789419528
SAOCOM 1B               
1 46265U 20059A   26157.83819068  .00000464  00000+0  64879-4 0  9994
2 46265  97.8888 343.8315 0001508  77.1598 282.9783 14.82163612311953
CSS (TIANHE)            
1 48274U 21035A   26157.67381584  .00028669  00000+0  34211-3 0  9993
2 48274  41.4692  25.9625 0009150 355.7318   4.3441 15.60361832291529
COSMOS 2550             
1 48865U 21056A   26157.85159876  .00006525  00000+0  20459-3 0  9995
2 48865  67.1421 131.1700 0008692 266.7057  93.3104 15.33732367277135
CZ-2C R/B               
1 52794U 22058K   26156.46722229  .00039184  00000+0  44813-3 0  9995
2 52794  50.1841 224.4657 0033216 218.6451 141.2145 15.61032214223819
CZ-2C R/B               
1 54039U 22132E   26157.76937705  .00062680  00000+0  50982-3 0  9994
2 54039  97.2912 164.3376 0017019 116.3837 243.9175 15.70302046204319
GSLV R/B                
1 54149U 22138AN  26157.69148059  .00003323  00000+0  28371-3 0  9996
2 54149  87.3804 136.5095 0021123 180.5244 179.5969 14.97211532197241
XRISM                   
1 57800U 23137A   26157.43317480  .00005488  00000+0  30291-3 0  9999
2 57800  31.0024  69.2561 0007840 217.1216 142.8881 15.12371035151232
ACS3                    
1 59588U 24077B   26157.58151596  .00054416  00000+0  40688-1 0  9992
2 59588  97.1687  78.7355 0047765  67.7110 292.9110 13.93749381106561
CZ-8A R/B               
1 66004U 25231K   26157.08185066 -.00000047  00000+0  41734-4 0  9998
2 66004  50.0038  86.5627 0116476 184.9058 175.0725 14.30151850 33357
SZ-21 MODULE            
1 66515U 25246C   26157.31606433  .00056445  00000+0  36002-3 0  9996
2 66515  41.4728  14.9847 0007184 283.9983  76.0062 15.75457395 32025
